STARLINK-36201          
1 67164U 25303B   26068.06308963  .00044271  00000+0  16085-2 0  9993
2 67164  43.0035 313.8854 0002617 255.6496 104.4066 15.27581110 12641
2025-313BE              
1 67482U 25313BE  26068.69721505  .00077178  00000+0  26504-2 0  9996
2 67482  97.3989 145.3568 0007208 335.3714  24.7181 15.29801687  7972
