[{"OBJECT_NAME":"STARLINK-36201","OBJECT_ID":"2025-303B","EPOCH":"2026-03-09T01:30:50.944032","MEAN_MOTION":15.2758111,"ECCENTRICITY":0.00026172,"INCLINATION":43.0035,"RA_OF_ASC_NODE":313.8854,"ARG_OF_PERICENTER":255.6496,"MEAN_ANOMALY":104.4066,"EPHEMERIS_TYPE":0,"CLASSIFICATION_TYPE":"U","NORAD_CAT_ID":67164,"ELEMENT_SET_NO":999,"REV_AT_EPOCH":1264,"BSTAR":0.0016085417,"MEAN_MOTION_DOT":0.00044271,"MEAN_MOTION_DDOT":0},{"OBJECT_NAME":"OBJECT BE","OBJECT_ID":"2025-313BE","EPOCH":"2026-03-09T16:43:59.380320","MEAN_MOTION":15.29801687,"ECCENTRICITY":0.00072083,"INCLINATION":97.3989,"RA_OF_ASC_NODE":145.3568,"ARG_OF_PERICENTER":335.3714,"MEAN_ANOMALY":24.7181,"EPHEMERIS_TYPE":0,"CLASSIFICATION_TYPE":"U","NORAD_CAT_ID":67482,"ELEMENT_SET_NO":999,"REV_AT_EPOCH":797,"BSTAR":0.0026504328,"MEAN_MOTION_DOT":0.00077178,"MEAN_MOTION_DDOT":0}]
